{"fetched_at":"2026-07-21T07:06:56.588Z","source":"https://celestrak.org/NORAD/elements/gp.php?NAME=ICEYE&FORMAT=JSON","constellation":"iceye","records":[{"OBJECT_NAME":"ICEYE-X2","OBJECT_ID":"2018-099AU","EPOCH":"2026-07-20T23:01:40.160640","CLASSIFICATION_TYPE":"U","MEAN_MOTION":15.18078269,"ECCENTRICITY":0.00104675,"INCLINATION":97.4336,"RA_OF_ASC_NODE":255.21,"ARG_OF_PERICENTER":175.1624,"MEAN_ANOMALY":184.9713,"EPHEMERIS_TYPE":0,"NORAD_CAT_ID":43800,"ELEMENT_SET_NO":999,"REV_AT_EPOCH":41794,"BSTAR":0.00018226612,"MEAN_MOTION_DOT":0.00003651,"MEAN_MOTION_DDOT":0},{"OBJECT_NAME":"ICEYE-X4","OBJECT_ID":"2019-038D","EPOCH":"2026-07-20T22:51:38.401056","CLASSIFICATION_TYPE":"U","MEAN_MOTION":15.29958928,"ECCENTRICITY":0.00134627,"INCLINATION":97.8747,"RA_OF_ASC_NODE":236.8652,"ARG_OF_PERICENTER":178.0118,"MEAN_ANOMALY":182.1177,"EPHEMERIS_TYPE":0,"NORAD_CAT_ID":44390,"ELEMENT_SET_NO":999,"REV_AT_EPOCH":38696,"BSTAR":0.00028649136,"MEAN_MOTION_DOT":0.00008248,"MEAN_MOTION_DDOT":0},{"OBJECT_NAME":"ICEYE-X7","OBJECT_ID":"2020-068L","EPOCH":"2026-07-20T21:54:22.038912","CLASSIFICATION_TYPE":"U","MEAN_MOTION":15.32170862,"ECCENTRICITY":0.00067017,"INCLINATION":97.7513,"RA_OF_ASC_NODE":169.9923,"ARG_OF_PERICENTER":190.2403,"MEAN_ANOMALY":169.8702,"EPHEMERIS_TYPE":0,"NORAD_CAT_ID":46496,"ELEMENT_SET_NO":999,"REV_AT_EPOCH":31995,"BSTAR":0.00025864827,"MEAN_MOTION_DOT":0.00007955,"MEAN_MOTION_DDOT":0},{"OBJECT_NAME":"ICEYE-X6","OBJECT_ID":"2020-068M","EPOCH":"2026-07-20T23:24:10.595232","CLASSIFICATION_TYPE":"U","MEAN_MOTION":15.04685107,"ECCENTRICITY":0.0006702,"INCLINATION":98.0993,"RA_OF_ASC_NODE":197.2684,"ARG_OF_PERICENTER":352.9692,"MEAN_ANOMALY":7.1437,"EPHEMERIS_TYPE":0,"NORAD_CAT_ID":46497,"ELEMENT_SET_NO":999,"REV_AT_EPOCH":31831,"BSTAR":0.00010491206,"MEAN_MOTION_DOT":0.00001408,"MEAN_MOTION_DDOT":0},{"OBJECT_NAME":"ICEYE-X21","OBJECT_ID":"2023-001AS","EPOCH":"2026-06-24T05:11:18.420288","CLASSIFICATION_TYPE":"U","MEAN_MOTION":16.24069885,"ECCENTRICITY":0.00123774,"INCLINATION":97.3001,"RA_OF_ASC_NODE":262.6152,"ARG_OF_PERICENTER":285.9702,"MEAN_ANOMALY":74.0225,"EPHEMERIS_TYPE":0,"NORAD_CAT_ID":55049,"ELEMENT_SET_NO":999,"REV_AT_EPOCH":19475,"BSTAR":0.000602142,"MEAN_MOTION_DOT":0.01585954,"MEAN_MOTION_DDOT":0.000002396838},{"OBJECT_NAME":"ICEYE-X25","OBJECT_ID":"2023-084AH","EPOCH":"2026-07-20T22:48:56.935872","CLASSIFICATION_TYPE":"U","MEAN_MOTION":15.63061577,"ECCENTRICITY":0.00046658,"INCLINATION":97.5919,"RA_OF_ASC_NODE":350.6099,"ARG_OF_PERICENTER":167.1038,"MEAN_ANOMALY":193.034,"EPHEMERIS_TYPE":0,"NORAD_CAT_ID":56963,"ELEMENT_SET_NO":999,"REV_AT_EPOCH":17324,"BSTAR":0.00026539085,"MEAN_MOTION_DOT":0.00024038,"MEAN_MOTION_DDOT":0},{"OBJECT_NAME":"ICEYE-X31","OBJECT_ID":"2023-174AJ","EPOCH":"2026-07-20T23:21:27.219744","CLASSIFICATION_TYPE":"U","MEAN_MOTION":15.35291338,"ECCENTRICITY":0.00032429,"INCLINATION":97.3763,"RA_OF_ASC_NODE":277.7263,"ARG_OF_PERICENTER":170.2071,"MEAN_ANOMALY":189.9236,"EPHEMERIS_TYPE":0,"NORAD_CAT_ID":58288,"ELEMENT_SET_NO":999,"REV_AT_EPOCH":14993,"BSTAR":0.00037057854,"MEAN_MOTION_DOT":0.00012627,"MEAN_MOTION_DDOT":0},{"OBJECT_NAME":"ICEYE-X34","OBJECT_ID":"2023-174AQ","EPOCH":"2026-07-20T19:05:50.434368","CLASSIFICATION_TYPE":"U","MEAN_MOTION":15.72581664,"ECCENTRICITY":0.0002278,"INCLINATION":97.3848,"RA_OF_ASC_NODE":294.7895,"ARG_OF_PERICENTER":229.1915,"MEAN_ANOMALY":130.9151,"EPHEMERIS_TYPE":0,"NORAD_CAT_ID":58294,"ELEMENT_SET_NO":999,"REV_AT_EPOCH":15101,"BSTAR":0.00097581778,"MEAN_MOTION_DOT":0.00132125,"MEAN_MOTION_DDOT":0},{"OBJECT_NAME":"ICEYE-X35","OBJECT_ID":"2023-174AY","EPOCH":"2026-07-20T21:59:50.792640","CLASSIFICATION_TYPE":"U","MEAN_MOTION":15.55558554,"ECCENTRICITY":0.00072474,"INCLINATION":97.3774,"RA_OF_ASC_NODE":287.4974,"ARG_OF_PERICENTER":88.9528,"MEAN_ANOMALY":271.2557,"EPHEMERIS_TYPE":0,"NORAD_CAT_ID":58302,"ELEMENT_SET_NO":999,"REV_AT_EPOCH":15058,"BSTAR":0.00061639818,"MEAN_MOTION_DOT":0.00042279,"MEAN_MOTION_DDOT":0},{"OBJECT_NAME":"ICEYE-X38","OBJECT_ID":"2024-043C","EPOCH":"2026-07-20T21:54:14.897952","CLASSIFICATION_TYPE":"U","MEAN_MOTION":15.13120703,"ECCENTRICITY":0.0001857,"INCLINATION":97.8444,"RA_OF_ASC_NODE":346.6012,"ARG_OF_PERICENTER":3.4107,"MEAN_ANOMALY":356.7135,"EPHEMERIS_TYPE":0,"NORAD_CAT_ID":59100,"ELEMENT_SET_NO":999,"REV_AT_EPOCH":11677,"BSTAR":0.0001590548,"MEAN_MOTION_DOT":0.00002747,"MEAN_MOTION_DDOT":0},{"OBJECT_NAME":"ICEYE-X37","OBJECT_ID":"2024-043E","EPOCH":"2026-07-20T22:16:53.195808","CLASSIFICATION_TYPE":"U","MEAN_MOTION":15.06317691,"ECCENTRICITY":0.00139546,"INCLINATION":97.835,"RA_OF_ASC_NODE":339.4711,"ARG_OF_PERICENTER":252.7637,"MEAN_ANOMALY":107.2062,"EPHEMERIS_TYPE":0,"NORAD_CAT_ID":59102,"ELEMENT_SET_NO":999,"REV_AT_EPOCH":13016,"BSTAR":0.00019145352,"MEAN_MOTION_DOT":0.00002754,"MEAN_MOTION_DDOT":0},{"OBJECT_NAME":"ICEYE-X36","OBJECT_ID":"2024-043F","EPOCH":"2026-07-20T21:53:34.899936","CLASSIFICATION_TYPE":"U","MEAN_MOTION":15.0726202,"ECCENTRICITY":0.00057443,"INCLINATION":97.8412,"RA_OF_ASC_NODE":340.5975,"ARG_OF_PERICENTER":190.9384,"MEAN_ANOMALY":169.1719,"EPHEMERIS_TYPE":0,"NORAD_CAT_ID":59103,"ELEMENT_SET_NO":999,"REV_AT_EPOCH":13022,"BSTAR":0.00017210865,"MEAN_MOTION_DOT":0.0000253,"MEAN_MOTION_DDOT":0},{"OBJECT_NAME":"ICEYE-X43","OBJECT_ID":"2024-149BZ","EPOCH":"2026-07-20T18:56:24.529056","CLASSIFICATION_TYPE":"U","MEAN_MOTION":14.99776516,"ECCENTRICITY":0.00063552,"INCLINATION":97.6787,"RA_OF_ASC_NODE":278.2997,"ARG_OF_PERICENTER":323.0526,"MEAN_ANOMALY":37.0259,"EPHEMERIS_TYPE":0,"NORAD_CAT_ID":60539,"ELEMENT_SET_NO":999,"REV_AT_EPOCH":10515,"BSTAR":0.000064540593,"MEAN_MOTION_DOT":0.00000739,"MEAN_MOTION_DDOT":0},{"OBJECT_NAME":"ICEYE-X39","OBJECT_ID":"2024-149CG","EPOCH":"2026-07-20T18:21:03.136896","CLASSIFICATION_TYPE":"U","MEAN_MOTION":15.00099462,"ECCENTRICITY":0.00067359,"INCLINATION":97.68,"RA_OF_ASC_NODE":278.3382,"ARG_OF_PERICENTER":30.7464,"MEAN_ANOMALY":329.4153,"EPHEMERIS_TYPE":0,"NORAD_CAT_ID":60546,"ELEMENT_SET_NO":999,"REV_AT_EPOCH":10515,"BSTAR":0.00019730342,"MEAN_MOTION_DOT":0.00002401,"MEAN_MOTION_DDOT":0},{"OBJECT_NAME":"ICEYE-X33","OBJECT_ID":"2024-149CJ","EPOCH":"2026-07-20T18:28:45.428736","CLASSIFICATION_TYPE":"U","MEAN_MOTION":15.00914742,"ECCENTRICITY":0.00018421,"INCLINATION":97.7378,"RA_OF_ASC_NODE":280.7457,"ARG_OF_PERICENTER":68.8154,"MEAN_ANOMALY":291.3267,"EPHEMERIS_TYPE":0,"NORAD_CAT_ID":60548,"ELEMENT_SET_NO":999,"REV_AT_EPOCH":10524,"BSTAR":0.0002168254,"MEAN_MOTION_DOT":0.00002701,"MEAN_MOTION_DDOT":0}]}
