ICEYE-X2                
1 43800U 18099AU  26201.95949260  .00003651  00000+0  18227-3 0  9994
2 43800  97.4336 255.2100 0010467 175.1624 184.9713 15.18078269417943
ICEYE-X4                
1 44390U 19038D   26201.95252779  .00008248  00000+0  28649-3 0  9991
2 44390  97.8747 236.8652 0013462 178.0118 182.1177 15.29958928386965
ICEYE-X7                
1 46496U 20068L   26201.91275508  .00007955  00000+0  25865-3 0  9997
2 46496  97.7513 169.9923 0006701 190.2403 169.8702 15.32170862319950
ICEYE-X6                
1 46497U 20068M   26201.97512263  .00001408  00000+0  10491-3 0  9992
2 46497  98.0993 197.2684 0006702 352.9692   7.1437 15.04685107318313
ICEYE-X21               
1 55049U 23001AS  26175.21618542  .01585954  23968-5  60214-3 0  9995
2 55049  97.3001 262.6152 0012377 285.9702  74.0225 16.24069885194757
ICEYE-X25               
1 56963U 23084AH  26201.95065898  .00024038  00000+0  26539-3 0  9991
2 56963  97.5919 350.6099 0004665 167.1038 193.0340 15.63061577173248
ICEYE-X31               
1 58288U 23174AJ  26201.97323171  .00012627  00000+0  37058-3 0  9995
2 58288  97.3763 277.7263 0003242 170.2071 189.9236 15.35291338149935
ICEYE-X34               
1 58294U 23174AQ  26201.79572262  .00132125  00000+0  97582-3 0  9993
2 58294  97.3848 294.7895 0002278 229.1915 130.9151 15.72581664151014
ICEYE-X35               
1 58302U 23174AY  26201.91656010  .00042279  00000+0  61640-3 0  9997
2 58302  97.3774 287.4974 0007247  88.9528 271.2557 15.55558554150584
ICEYE-X38               
1 59100U 24043C   26201.91267243  .00002747  00000+0  15905-3 0  9995
2 59100  97.8444 346.6012 0001857   3.4107 356.7135 15.13120703116776
ICEYE-X37               
1 59102U 24043E   26201.92839347  .00002754  00000+0  19145-3 0  9996
2 59102  97.8350 339.4711 0013954 252.7637 107.2062 15.06317691130161
ICEYE-X36               
1 59103U 24043F   26201.91220949  .00002530  00000+0  17211-3 0  9992
2 59103  97.8412 340.5975 0005744 190.9384 169.1719 15.07262020130225
ICEYE-X43               
1 60539U 24149BZ  26201.78917279  .00000739  00000+0  64541-4 0  9996
2 60539  97.6787 278.2997 0006355 323.0526  37.0259 14.99776516105156
ICEYE-X39               
1 60546U 24149CG  26201.76461964  .00002401  00000+0  19730-3 0  9994
2 60546  97.6800 278.3382 0006735  30.7464 329.4153 15.00099462105156
ICEYE-X33               
1 60548U 24149CJ  26201.76997024  .00002701  00000+0  21683-3 0  9990
2 60548  97.7378 280.7457 0001842  68.8154 291.3267 15.00914742105241
